SENTINEL-6              
1 46984U 20086A   24087.87651885 -.00000051  00000+0  41985-4 0  9993
2 46984  66.0445  20.1510 0007817 271.2823  88.7296 12.80929274156416
